#aV2008  3 10  0  0   .00000000      96 DD+AD WGS84 FIT  NGA
## 1470  86400.00000000   900.00000000 54535  .0000000000000
+   31     1  2  3  4  5  6  8  9 10 11 12 13 14 15 16 17 18
+         19 20 21 22 23 24 25 26 27 28 29 30 31 32  0  0  0
+          0  0  0  0  0  0  0  0  0  0  0  0  0  0  0  0  0
+          0  0  0  0  0  0  0  0  0  0  0  0  0  0  0  0  0
+          0  0  0  0  0  0  0  0  0  0  0  0  0  0  0  0  0
++         0  0  0  0  0  0  0  0  0  0  0  0  0  0  0  0  0
++         0  0  0  0  0  0  0  0  0  0  0  0  0  0  0  0  0
++         0  0  0  0  0  0  0  0  0  0  0  0  0  0  0  0  0
++         0  0  0  0  0  0  0  0  0  0  0  0  0  0  0  0  0
++         0  0  0  0  0  0  0  0  0  0  0  0  0  0  0  0  0
%c cc cc ccc ccc cccc cccc cccc cccc ccccc ccccc ccccc ccccc
%c cc cc ccc ccc cccc cccc cccc cccc ccccc ccccc ccccc ccccc
%f  0.0000000  0.000000000  0.00000000000  0.000000000000000
%f  0.0000000  0.000000000  0.00000000000  0.000000000000000
%i    0    0    0    0      0      0      0      0         0
%i    0    0    0    0      0      0      0      0         0
/*      NGA, ST. LOUIS,MO.                                  
/*   EPHEMERIS COMPUTED FROM  3 DAYS OF DATA                
/* CCCCCCCCCCCCCCCCCCCCCCCCCCCCCCCCCCCCCCCCCCCCCCCCCCCCCCCCC
/* CCCCCCCCCCCCCCCCCCCCCCCCCCCCCCCCCCCCCCCCCCCCCCCCCCCCCCCCC
*  2008  3 10 21 15   .00000000                                                 
P  1 -18908.207494 -17406.754612  -6628.315202    191.382333                    
V  1  -3920.125403  -7920.808861  30897.656514       .025615                    
P  2  15242.405818   3749.332596 -21590.990634    181.045905                    
V  2  -8346.737914  25759.895694  -1765.569253       .031212                    
P  3 -21979.782659  -6998.750386  13211.825727    198.567114                    
V  3 -10534.340745 -13820.632442 -24037.388346       .050954                    
P  4   9509.792628  15333.547846 -19469.529592    -23.791695                    
V  4  -9841.163607  22701.907657  13499.079770      -.070934                    
P  5  15392.106124 -15771.680710 -14984.801191    717.429911                    
V  5  18636.854980  -2779.487948  22606.513831       .119766                    
P  6 -13023.540221 -21867.637823  -7394.817673     58.256044                    
V  6   9154.030907   4650.788988 -29230.654150       .156350                    
P  8   1841.858370  21712.134615  14764.283495   -144.365967                    
V  8  -8928.960215  16933.318624 -24100.699551      -.016078                    
P  9  13976.864644 -19009.182398  11404.407823    114.494506                    
V  9  -2181.577849  15528.371575  27264.950812       .017911                    
P 10  26229.391797   -634.888785  -5285.577127   -281.488271                    
V 10  -6011.284131   3354.766368 -30687.215593      -.563367                    
P 11 -11522.761542  21375.754734  10233.501527     26.881850                    
V 11  -2563.685600 -14009.767415  26321.157758      -.001092                    
P 12  20457.541858 -12136.765753 -11634.767458   -357.910629                    
V 12  15132.985274   -436.652059  26925.587588      -.005240                    
P 13   2172.988113  20447.914700 -16938.346948    244.676983                    
V 13 -13987.506632 -15981.378907 -21195.232177       .020203                    
P 14 -14944.591580 -21770.414214   3386.573161   -289.214207                    
V 14   4020.008435   2075.289373  31939.934076       .038304                    
P 15  17138.469305  -2078.927658  20209.650812    -84.062912                    
V 15  16178.226453  19887.775090 -11685.592280      -.038383                    
P 16 -24818.319707  -2271.219516  -9371.527184    131.809491                    
V 16  11374.426160  -4314.538177 -28657.209906      -.008665                    
P 17  15001.762940  21714.835293   3692.441036     41.251608                    
V 17  -5029.539430  -1811.558299  31179.067857      -.004709                    
P 18   3207.166679 -15857.741328  21181.883077   -197.544233                    
V 18  26422.084051  -3223.325574  -6814.112815       .032638                    
P 19 -16935.587787   1508.444129  20530.323968     23.738319                    
V 19 -14842.667688 -21176.851134 -10563.862955       .012669                    
P 20 -18372.911787  13718.328276 -13478.474533    118.887501                    
V 20 -17130.826088   1001.678303  24629.213704      -.007831                    
P 21   3609.009331 -24978.673330   7376.965222     69.861388                    
V 21   6875.790036  -7395.024097 -29648.441530      -.008823                    
P 22 -12152.443074 -12795.830222  20014.851720    209.457376                    
V 22  24679.533747  -4825.634879  11948.824326       .003362                    
P 23  -9934.304142  11382.578550 -21899.496815    340.003275                    
V 23 -18252.174010 -20739.689572  -2734.472544       .026546                    
P 24  12984.700037 -22786.916600  -4902.122772     77.075362                    
V 24    161.572506   6963.713130 -30589.495587       .030894                    
P 25  -7975.844766  25261.653151  -2573.707748    527.756033                    
V 25  -1654.484242  -4206.033996 -31479.245729       .093062                    
P 26  18165.101787   3146.642193  18863.537063    204.320173                    
V 26  14747.101153  19809.283670 -16548.239597       .094092                    
P 27  -2837.328144  25752.759040   6107.577189    173.378655                    
V 27  -4296.883364   5985.012060 -30762.652649       .026950                    
P 28   9800.757250  13337.158549  21217.557912    -16.315158                    
V 28 -25563.091969   4761.924553   8638.664282      -.005021                    
P 29   1152.598860 -18884.633163 -18535.566521    -50.750618                    
V 29  16359.569755  17308.770596 -16488.014546       .033537                    
P 30   9257.991178 -16269.261592 -19136.973560     67.158297                    
V 30  23405.586652  -3908.086918  15006.027877       .015702                    
P 31 -10182.113780 -13473.939927 -20264.162276    -12.264110                    
V 31   9463.795200 -24466.997468  11494.236942      -.014394                    
P 32 -22850.702760  -6099.896422  12370.492367    246.955211                    
V 32  14757.819911  -3662.217127  26546.539345       .081059                    
EOF
